*******************************************************************************
Ephemeris / WWW_USER Mon Mar 26 21:02:45 2018 Pasadena, USA      / Horizons    
*******************************************************************************
Target body name: Tethys (603)                    {source: sat389}
Center body name: Saturn Barycenter (6)           {source: sat389}
Center-site name: BODY CENTER
*******************************************************************************
Start time      : A.D. 2000-Jan-01 00:00:00.0000 TDB
Stop  time      : A.D. 2010-Jan-01 00:00:00.0000 TDB
Step-size       : 7200 minutes
*******************************************************************************
Center geodetic : 0.00000000,0.00000000,0.0000000 {E-lon(deg),Lat(deg),Alt(km)}
Center cylindric: 0.00000000,0.00000000,0.0000000 {E-lon(deg),Dxy(km),Dz(km)}
Center radii    : (undefined)                                                  
Output units    : AU-D                                                         
Output type     : GEOMETRIC cartesian states
Output format   : 2 (position and velocity)
Reference frame : ICRF/J2000.0                                                 
Coordinate systm: Ecliptic and Mean Equinox of Reference Epoch                 
*******************************************************************************
JDTDB
   X     Y     Z
   VX    VY    VZ
*******************************************************************************
$$SOE
2455114.500000000 = A.D. 2009-Oct-10 00:00:00.0000 TDB 
  -4.844858979239043E-04 -1.682808154956102E-03  9.065046377772444E-04
   6.321386627452779E-03 -1.728593847392677E-03  1.724186539453178E-04
2455119.500000000 = A.D. 2009-Oct-15 00:00:00.0000 TDB 
  -1.236928241477775E-03  1.417638879978916E-03 -5.805419028473475E-04
  -5.056811418699693E-03 -3.469749229866323E-03  2.318065723711463E-03
2455124.500000000 = A.D. 2009-Oct-20 00:00:00.0000 TDB 
   1.956772172222448E-03 -3.929901507086739E-06 -2.145996616089886E-04
  -3.051778455412293E-04  5.856648572458600E-03 -2.930006716580124E-03
2455129.500000000 = A.D. 2009-Oct-25 00:00:00.0000 TDB 
  -1.092422446877283E-03 -1.413101257423292E-03  8.353648278356862E-04
   5.419516977305157E-03 -3.498389933197151E-03  1.171076862666265E-03
2455134.500000000 = A.D. 2009-Oct-30 00:00:00.0000 TDB 
  -6.582786425281890E-04  1.684338077611848E-03 -7.789579774136895E-04
  -6.143795500970967E-03 -1.696705269572687E-03  1.534196015396298E-03
2455139.500000000 = A.D. 2009-Nov-04 00:00:00.0000 TDB 
   1.875277101093034E-03 -5.913064757520471E-04  9.284658766168643E-05
   1.891387651978649E-03  5.516550764161685E-03 -2.994896397641574E-03
2455144.500000000 = A.D. 2009-Nov-09 00:00:00.0000 TDB 
  -1.574308910874650E-03 -9.816784400117195E-04  6.681446313101283E-04
   3.894892804169238E-03 -4.866785449367247E-03  2.031100286151971E-03
2455149.500000000 = A.D. 2009-Nov-14 00:00:00.0000 TDB 
  -2.968461139322833E-06  1.757749874032112E-03 -8.868618227583562E-04
  -6.525222278067830E-03  2.732361819176851E-04  5.746911132468426E-04
2455154.500000000 = A.D. 2009-Nov-19 00:00:00.0000 TDB 
   1.578299144844592E-03 -1.110708329493431E-03  3.884670736375146E-04
   3.869820075325812E-03  4.543123736232730E-03 -2.713331684472464E-03
2455159.500000000 = A.D. 2009-Nov-24 00:00:00.0000 TDB 
  -1.875666944473602E-03 -4.367168496711620E-04  4.238424706292054E-04
   1.920628641040508E-03 -5.678406941644279E-03  2.654690229116173E-03
2455164.500000000 = A.D. 2009-Nov-29 00:00:00.0000 TDB 
   6.520031182559586E-04  1.629391069399918E-03 -8.918169076811098E-04
  -6.156035796261277E-03  2.211969838099982E-03 -4.482979604124544E-04
2455169.500000000 = A.D. 2009-Dec-04 00:00:00.0000 TDB 
   1.099628363246877E-03 -1.503328024303794E-03  6.386254426830768E-04
   5.403161444894992E-03  3.047200252167265E-03 -2.118376663458577E-03
2455174.500000000 = A.D. 2009-Dec-09 00:00:00.0000 TDB 
  -1.960819150119665E-03  1.581664459755966E-04  1.313396876721079E-04
  -2.736622528783503E-04 -5.839405737595155E-03  2.969832479285343E-03
2455179.500000000 = A.D. 2009-Dec-14 00:00:00.0000 TDB 
   1.232695872563800E-03  1.314071827307507E-03 -7.936779778545570E-04
  -5.077051478773318E-03  3.898364487857591E-03 -1.417321885242198E-03
2455184.500000000 = A.D. 2009-Dec-19 00:00:00.0000 TDB 
   4.942729270275441E-04 -1.723259600374474E-03  8.141358924416740E-04
   6.315724209246813E-03  1.201469242373913E-03 -1.280116163600776E-03
2455189.500000000 = A.D. 2009-Dec-24 00:00:00.0000 TDB 
  -1.820879835499437E-03  7.355580809454641E-04 -1.757794200203044E-04
  -2.437703660210592E-03 -5.329225588658135E-03  2.940050471632744E-03
2455194.500000000 = A.D. 2009-Dec-29 00:00:00.0000 TDB 
   1.671235902067776E-03  8.475359493735786E-04 -6.037031055426578E-04
  -3.414450884948329E-03  5.138281942962872E-03 -2.220001694256314E-03
